{
  "type": "FeatureCollection",
  "metadata": {
    "dataset": "Data Sintetis LST (Model Ilustratif)",
    "title": "Model Sintetis Land Surface Temperature",
    "doi": "N/A",
    "spatial_resolution": "1000 meters (1 km)",
    "temporal_coverage": "2000-present",
    "generated_at": "2026-10-06T07:46:03.766789+00:00",
    "station_count": 18
  },
  "features": [
    {
      "type": "Feature",
      "geometry": {
        "type": "Point",
        "coordinates": [
          106.8272,
          -6.1754
        ]
      },
      "properties": {
        "id": "jkt_monas",
        "name": "Jakarta Monas (Urban Core)",
        "island": "Jawa",
        "province": "DKI Jakarta",
        "station_type": "Urban Megacity",
        "elevation_m": 14,
        "latitude": -6.1754,
        "longitude": 106.8272,
        "lst_day_c": 36.1,
        "lst_day_k": 309.25,
        "lst_night_c": 24.9,
        "lst_night_k": 298.05,
        "lst_mean_c": 30.5,
        "diurnal_delta_c": 11.2,
        "qa_quality_score": "Sintetis (Model Ilustratif)",
        "dataset_source": "Data Sintetis (Bukan Observasi Satelit)",
        "composite_period": "Daily / Monthly Composite",
        "last_updated": "2026-10-06"
      }
    },
    {
      "type": "Feature",
      "geometry": {
        "type": "Point",
        "coordinates": [
          106.6559,
          -6.1256
        ]
      },
      "properties": {
        "id": "jkt_cengkareng",
        "name": "Jakarta Soekarno-Hatta",
        "island": "Jawa",
        "province": "Banten",
        "station_type": "Coastal Urban Plain",
        "elevation_m": 10,
        "latitude": -6.1256,
        "longitude": 106.6559,
        "lst_day_c": 36.1,
        "lst_day_k": 309.25,
        "lst_night_c": 25.0,
        "lst_night_k": 298.15,
        "lst_mean_c": 30.6,
        "diurnal_delta_c": 11.1,
        "qa_quality_score": "Sintetis (Model Ilustratif)",
        "dataset_source": "Data Sintetis (Bukan Observasi Satelit)",
        "composite_period": "Daily / Monthly Composite",
        "last_updated": "2026-10-06"
      }
    },
    {
      "type": "Feature",
      "geometry": {
        "type": "Point",
        "coordinates": [
          107.6186,
          -6.825
        ]
      },
      "properties": {
        "id": "bdg_lembang",
        "name": "Bandung Lembang (Highland)",
        "island": "Jawa",
        "province": "Jawa Barat",
        "station_type": "Mountain Highland",
        "elevation_m": 1240,
        "latitude": -6.825,
        "longitude": 107.6186,
        "lst_day_c": 19.2,
        "lst_day_k": 292.35,
        "lst_night_c": 9.3,
        "lst_night_k": 282.45,
        "lst_mean_c": 14.2,
        "diurnal_delta_c": 9.9,
        "qa_quality_score": "Sintetis (Model Ilustratif)",
        "dataset_source": "Data Sintetis (Bukan Observasi Satelit)",
        "composite_period": "Daily / Monthly Composite",
        "last_updated": "2026-10-06"
      }
    },
    {
      "type": "Feature",
      "geometry": {
        "type": "Point",
        "coordinates": [
          112.7876,
          -7.3797
        ]
      },
      "properties": {
        "id": "sby_juanda",
        "name": "Surabaya Metropolitan",
        "island": "Jawa",
        "province": "Jawa Timur",
        "station_type": "Coastal Industrial Plain",
        "elevation_m": 5,
        "latitude": -7.3797,
        "longitude": 112.7876,
        "lst_day_c": 32.6,
        "lst_day_k": 305.75,
        "lst_night_c": 23.2,
        "lst_night_k": 296.35,
        "lst_mean_c": 27.9,
        "diurnal_delta_c": 9.4,
        "qa_quality_score": "Sintetis (Model Ilustratif)",
        "dataset_source": "Data Sintetis (Bukan Observasi Satelit)",
        "composite_period": "Daily / Monthly Composite",
        "last_updated": "2026-10-06"
      }
    },
    {
      "type": "Feature",
      "geometry": {
        "type": "Point",
        "coordinates": [
          110.3756,
          -6.9744
        ]
      },
      "properties": {
        "id": "smg_coastal",
        "name": "Semarang Coastal",
        "island": "Jawa",
        "province": "Jawa Tengah",
        "station_type": "Coastal Plain",
        "elevation_m": 4,
        "latitude": -6.9744,
        "longitude": 110.3756,
        "lst_day_c": 32.5,
        "lst_day_k": 305.65,
        "lst_night_c": 22.8,
        "lst_night_k": 295.95,
        "lst_mean_c": 27.6,
        "diurnal_delta_c": 9.7,
        "qa_quality_score": "Sintetis (Model Ilustratif)",
        "dataset_source": "Data Sintetis (Bukan Observasi Satelit)",
        "composite_period": "Daily / Monthly Composite",
        "last_updated": "2026-10-06"
      }
    },
    {
      "type": "Feature",
      "geometry": {
        "type": "Point",
        "coordinates": [
          110.4319,
          -7.7881
        ]
      },
      "properties": {
        "id": "ygy_merapi",
        "name": "Yogyakarta Foothills",
        "island": "Jawa",
        "province": "DI Yogyakarta",
        "station_type": "Volcanic Lowland Basin",
        "elevation_m": 116,
        "latitude": -7.7881,
        "longitude": 110.4319,
        "lst_day_c": 31.6,
        "lst_day_k": 304.75,
        "lst_night_c": 22.4,
        "lst_night_k": 295.55,
        "lst_mean_c": 27.0,
        "diurnal_delta_c": 9.2,
        "qa_quality_score": "Sintetis (Model Ilustratif)",
        "dataset_source": "Data Sintetis (Bukan Observasi Satelit)",
        "composite_period": "Daily / Monthly Composite",
        "last_updated": "2026-10-06"
      }
    },
    {
      "type": "Feature",
      "geometry": {
        "type": "Point",
        "coordinates": [
          115.1672,
          -8.7482
        ]
      },
      "properties": {
        "id": "dps_ngurahrai",
        "name": "Denpasar Bali",
        "island": "Bali & Nusa Tenggara",
        "province": "Bali",
        "station_type": "Island Coastal Tourism",
        "elevation_m": 4,
        "latitude": -8.7482,
        "longitude": 115.1672,
        "lst_day_c": 32.0,
        "lst_day_k": 305.15,
        "lst_night_c": 22.5,
        "lst_night_k": 295.65,
        "lst_mean_c": 27.2,
        "diurnal_delta_c": 9.5,
        "qa_quality_score": "Sintetis (Model Ilustratif)",
        "dataset_source": "Data Sintetis (Bukan Observasi Satelit)",
        "composite_period": "Daily / Monthly Composite",
        "last_updated": "2026-10-06"
      }
    },
    {
      "type": "Feature",
      "geometry": {
        "type": "Point",
        "coordinates": [
          116.702,
          -0.9619
        ]
      },
      "properties": {
        "id": "ikn_sepaku",
        "name": "IKN Nusantara (KIPP Core)",
        "island": "Kalimantan",
        "province": "Kalimantan Timur",
        "station_type": "Equatorial Forest Basin",
        "elevation_m": 85,
        "latitude": -0.9619,
        "longitude": 116.702,
        "lst_day_c": 31.7,
        "lst_day_k": 304.85,
        "lst_night_c": 22.6,
        "lst_night_k": 295.75,
        "lst_mean_c": 27.1,
        "diurnal_delta_c": 9.1,
        "qa_quality_score": "Sintetis (Model Ilustratif)",
        "dataset_source": "Data Sintetis (Bukan Observasi Satelit)",
        "composite_period": "Daily / Monthly Composite",
        "last_updated": "2026-10-06"
      }
    },
    {
      "type": "Feature",
      "geometry": {
        "type": "Point",
        "coordinates": [
          116.8944,
          -1.2683
        ]
      },
      "properties": {
        "id": "bpn_sepinggan",
        "name": "Balikpapan Coastal",
        "island": "Kalimantan",
        "province": "Kalimantan Timur",
        "station_type": "Coastal Industrial",
        "elevation_m": 8,
        "latitude": -1.2683,
        "longitude": 116.8944,
        "lst_day_c": 32.4,
        "lst_day_k": 305.55,
        "lst_night_c": 22.9,
        "lst_night_k": 296.05,
        "lst_mean_c": 27.6,
        "diurnal_delta_c": 9.5,
        "qa_quality_score": "Sintetis (Model Ilustratif)",
        "dataset_source": "Data Sintetis (Bukan Observasi Satelit)",
        "composite_period": "Daily / Monthly Composite",
        "last_updated": "2026-10-06"
      }
    },
    {
      "type": "Feature",
      "geometry": {
        "type": "Point",
        "coordinates": [
          109.3425,
          -0.0263
        ]
      },
      "properties": {
        "id": "ptk_equator",
        "name": "Pontianak Equator",
        "island": "Kalimantan",
        "province": "Kalimantan Barat",
        "station_type": "Equatorial Lowland River",
        "elevation_m": 3,
        "latitude": -0.0263,
        "longitude": 109.3425,
        "lst_day_c": 32.3,
        "lst_day_k": 305.45,
        "lst_night_c": 22.7,
        "lst_night_k": 295.85,
        "lst_mean_c": 27.5,
        "diurnal_delta_c": 9.6,
        "qa_quality_score": "Sintetis (Model Ilustratif)",
        "dataset_source": "Data Sintetis (Bukan Observasi Satelit)",
        "composite_period": "Daily / Monthly Composite",
        "last_updated": "2026-10-06"
      }
    },
    {
      "type": "Feature",
      "geometry": {
        "type": "Point",
        "coordinates": [
          98.6756,
          3.5859
        ]
      },
      "properties": {
        "id": "mdn_deli",
        "name": "Medan Urban Core",
        "island": "Sumatera",
        "province": "Sumatera Utara",
        "station_type": "Lowland Tropical Plain",
        "elevation_m": 24,
        "latitude": 3.5859,
        "longitude": 98.6756,
        "lst_day_c": 32.3,
        "lst_day_k": 305.45,
        "lst_night_c": 22.8,
        "lst_night_k": 295.95,
        "lst_mean_c": 27.5,
        "diurnal_delta_c": 9.5,
        "qa_quality_score": "Sintetis (Model Ilustratif)",
        "dataset_source": "Data Sintetis (Bukan Observasi Satelit)",
        "composite_period": "Daily / Monthly Composite",
        "last_updated": "2026-10-06"
      }
    },
    {
      "type": "Feature",
      "geometry": {
        "type": "Point",
        "coordinates": [
          104.7003,
          -2.8986
        ]
      },
      "properties": {
        "id": "plm_musi",
        "name": "Palembang Musi Basin",
        "island": "Sumatera",
        "province": "Sumatera Selatan",
        "station_type": "Lowland River Basin",
        "elevation_m": 12,
        "latitude": -2.8986,
        "longitude": 104.7003,
        "lst_day_c": 33.1,
        "lst_day_k": 306.25,
        "lst_night_c": 23.0,
        "lst_night_k": 296.15,
        "lst_mean_c": 28.1,
        "diurnal_delta_c": 10.1,
        "qa_quality_score": "Sintetis (Model Ilustratif)",
        "dataset_source": "Data Sintetis (Bukan Observasi Satelit)",
        "composite_period": "Daily / Monthly Composite",
        "last_updated": "2026-10-06"
      }
    },
    {
      "type": "Feature",
      "geometry": {
        "type": "Point",
        "coordinates": [
          100.3692,
          -0.3055
        ]
      },
      "properties": {
        "id": "pdg_bukittinggi",
        "name": "Bukittinggi Barisan",
        "island": "Sumatera",
        "province": "Sumatera Barat",
        "station_type": "Highland Mountain Valley",
        "elevation_m": 930,
        "latitude": -0.3055,
        "longitude": 100.3692,
        "lst_day_c": 20.8,
        "lst_day_k": 293.95,
        "lst_night_c": 11.0,
        "lst_night_k": 284.15,
        "lst_mean_c": 15.9,
        "diurnal_delta_c": 9.8,
        "qa_quality_score": "Sintetis (Model Ilustratif)",
        "dataset_source": "Data Sintetis (Bukan Observasi Satelit)",
        "composite_period": "Daily / Monthly Composite",
        "last_updated": "2026-10-06"
      }
    },
    {
      "type": "Feature",
      "geometry": {
        "type": "Point",
        "coordinates": [
          119.554,
          -5.0617
        ]
      },
      "properties": {
        "id": "mks_hasanuddin",
        "name": "Makassar Coastal",
        "island": "Sulawesi",
        "province": "Sulawesi Selatan",
        "station_type": "Coastal Port Met",
        "elevation_m": 14,
        "latitude": -5.0617,
        "longitude": 119.554,
        "lst_day_c": 32.6,
        "lst_day_k": 305.75,
        "lst_night_c": 22.7,
        "lst_night_k": 295.85,
        "lst_mean_c": 27.6,
        "diurnal_delta_c": 9.9,
        "qa_quality_score": "Sintetis (Model Ilustratif)",
        "dataset_source": "Data Sintetis (Bukan Observasi Satelit)",
        "composite_period": "Daily / Monthly Composite",
        "last_updated": "2026-10-06"
      }
    },
    {
      "type": "Feature",
      "geometry": {
        "type": "Point",
        "coordinates": [
          124.9261,
          1.5492
        ]
      },
      "properties": {
        "id": "mnd_samratulangi",
        "name": "Manado Minahasa",
        "island": "Sulawesi",
        "province": "Sulawesi Utara",
        "station_type": "Volcanic Coastal",
        "elevation_m": 80,
        "latitude": 1.5492,
        "longitude": 124.9261,
        "lst_day_c": 32.1,
        "lst_day_k": 305.25,
        "lst_night_c": 22.5,
        "lst_night_k": 295.65,
        "lst_mean_c": 27.3,
        "diurnal_delta_c": 9.6,
        "qa_quality_score": "Sintetis (Model Ilustratif)",
        "dataset_source": "Data Sintetis (Bukan Observasi Satelit)",
        "composite_period": "Daily / Monthly Composite",
        "last_updated": "2026-10-06"
      }
    },
    {
      "type": "Feature",
      "geometry": {
        "type": "Point",
        "coordinates": [
          128.1889,
          -3.705
        ]
      },
      "properties": {
        "id": "amb_pattimura",
        "name": "Ambon Bay",
        "island": "Maluku",
        "province": "Maluku",
        "station_type": "Archipelago Island",
        "elevation_m": 10,
        "latitude": -3.705,
        "longitude": 128.1889,
        "lst_day_c": 31.7,
        "lst_day_k": 304.85,
        "lst_night_c": 22.8,
        "lst_night_k": 295.95,
        "lst_mean_c": 27.2,
        "diurnal_delta_c": 8.9,
        "qa_quality_score": "Sintetis (Model Ilustratif)",
        "dataset_source": "Data Sintetis (Bukan Observasi Satelit)",
        "composite_period": "Daily / Monthly Composite",
        "last_updated": "2026-10-06"
      }
    },
    {
      "type": "Feature",
      "geometry": {
        "type": "Point",
        "coordinates": [
          140.5161,
          -2.5769
        ]
      },
      "properties": {
        "id": "jpr_sentani",
        "name": "Jayapura Sentani",
        "island": "Papua",
        "province": "Papua",
        "station_type": "Tropical Valley Basin",
        "elevation_m": 88,
        "latitude": -2.5769,
        "longitude": 140.5161,
        "lst_day_c": 32.4,
        "lst_day_k": 305.55,
        "lst_night_c": 21.8,
        "lst_night_k": 294.95,
        "lst_mean_c": 27.1,
        "diurnal_delta_c": 10.6,
        "qa_quality_score": "Sintetis (Model Ilustratif)",
        "dataset_source": "Data Sintetis (Bukan Observasi Satelit)",
        "composite_period": "Daily / Monthly Composite",
        "last_updated": "2026-10-06"
      }
    },
    {
      "type": "Feature",
      "geometry": {
        "type": "Point",
        "coordinates": [
          137.1833,
          -4.0833
        ]
      },
      "properties": {
        "id": "puncak_jaya",
        "name": "Puncak Jaya / Sudirman Range",
        "island": "Papua",
        "province": "Papua Tengah",
        "station_type": "Glacial Alpine Peak",
        "elevation_m": 4884,
        "latitude": -4.0833,
        "longitude": 137.1833,
        "lst_day_c": -23.6,
        "lst_day_k": 249.55,
        "lst_night_c": -27.6,
        "lst_night_k": 245.55,
        "lst_mean_c": -25.6,
        "diurnal_delta_c": 4.0,
        "qa_quality_score": "Sintetis (Model Ilustratif)",
        "dataset_source": "Data Sintetis (Bukan Observasi Satelit)",
        "composite_period": "Daily / Monthly Composite",
        "last_updated": "2026-10-06"
      }
    }
  ]
}