{"type":"Feature","geometry":{"type":"MultiPolygon","coordinates":[[[[106.19641907327377,-8.605275433304007],[105.546108311533,-8.45857931695789],[105.44932316961986,-8.48622143490202],[105.4456105057087,-8.502187281960113],[105.41660128514185,-8.495567338235755],[104.1721247,-8.851177090938334],[103.80142800644455,-7.176146710903833],[103.6963441,-7.152489092449521],[103.68140089999999,-7.216474892389862],[102.9800781,-7.057828392538151],[103.21428344054792,-6.000610380537121],[103.11685215285785,-5.98467289539051],[103.11599720233448,-6.009285165666164],[102.70471762461989,-6.100961111340434],[102.34668018118263,-6.20200517203109],[102.35296070000001,-6.245596793316089],[101.5820043,-6.410923493155275],[101.42661717400154,-5.7144532528903325],[101.2332696,-5.673629793881458],[101.32660793657824,-5.249030001380293],[101.2027866454958,-4.673518194578056],[99.4619116,-4.389391695197143],[99.5251546383215,-4.099745855528817],[99.04275629999998,-4.201676695394185],[98.65383096881291,-2.3748064361441887],[98.57875506938956,-2.3583762634373944],[98.56461420996402,-2.42242389443962],[97.86740056379813,-2.269467849608721],[98.05242372860528,-1.363892693853598],[97.9764154202855,-1.351800558903488],[96.47565309999999,-1.7686441980293688],[96.33087206688369,-1.0900251312967757],[96.072194,-1.0488763988286622],[96.19236706178395,-0.44096365471739696],[96.13446291235385,-0.18445089183322316],[94.1916042,-0.7175667991981172],[92.86698739999997,5.632434293922712],[93.37936402604149,5.769172588418106],[93.55469869999999,6.6297174929444],[94.75488596675494,6.451548867596546],[94.69222314432443,6.755496878269527],[95.43514012495409,6.90848167558005],[95.42386086871119,6.966563662591979],[95.68984874815406,7.0208207084076015],[95.8589375,7.851326491809135],[97.8276058275995,7.452094487220877],[97.91225200000001,7.865097491796777],[99.31646806437766,7.581253837195749],[99.93759878710557,7.7073370103039975],[100.0087551,8.053504891628634],[102.26986249999999,7.723362991924498],[102.10145796238098,6.89524668540507],[102.30874564012629,6.864837598119129],[103.12212249999999,7.07826709251898],[103.13300143315055,7.02662936376388],[105.10752433996035,7.429133800216476],[105.12202009999999,7.414837692206198],[105.45813351066306,5.744607925899956],[105.95494281089702,5.640395638042308],[105.72962392630852,4.549939025613312],[106.17143887682174,4.483188613328236],[106.17941239999999,4.507768295073467],[106.62899653964043,4.4140331414286855],[106.95719789339296,4.364328033648898],[106.96986299999999,4.408768695176885],[107.4696928755981,4.30409093713948],[107.50727776786042,4.48188354480879],[107.33792220000001,5.300985494256988],[109.53623810000002,5.883964393671931],[109.79117508399123,4.639518759564084],[109.85870799999996,4.623694994952753],[109.82639322796747,4.467786146858581],[110.00089002909046,3.617443177896],[110.10126640035197,3.596448797351746],[110.11390447024269,3.654535689704863],[110.88948394630084,3.4917608173594252],[110.90298239068636,3.5550910166348566],[111.40660113516742,3.4490210286356806],[111.78337629999999,5.283077194275166],[112.48472865833942,5.178218975762443],[112.49013159460554,5.199577291785097],[112.87749055164898,5.11925096894403],[113.27013455214268,5.060468795880651],[113.28072407073644,5.101575483888944],[113.78069772538844,4.997339440734001],[114.1832323,6.988508992603349],[114.89085810658378,6.888771614827895],[114.8959036242928,6.909878176039497],[115.280792418954,6.831157397279285],[115.68002238387889,6.77217671236745],[115.68923071008174,6.813150846265841],[116.18317945792003,6.711571803202017],[116.44875111719723,7.953159427824011],[118.41490619359678,7.554777181809943],[118.45853149999999,7.769023891883254],[120.43579084745501,7.3676302508722396],[120.5147116,7.718168091929227],[121.27082887433141,7.564337262044741],[121.2366939358876,7.730843359425499],[122.6251123007769,8.012058714692378],[122.651835,8.135010391556476],[122.94202639337735,8.07627394295314],[123.47267161325446,8.183819096262459],[123.51813408950372,7.959690937964869],[124.61531858048947,7.737750046011502],[124.619679,7.755781091895212],[125.36877298780328,7.603432849616315],[125.63240300000001,7.672014891971056],[125.64511248515815,7.609085813673598],[127.6206395,8.009743291667537],[128.24116999891737,4.982433896243152],[128.4363923,4.9401948946255905],[128.34230284032185,4.488044520520898],[128.56924888013506,3.3882985719243384],[130.11807709999997,3.1513587965154626],[129.7899209029492,1.5677659293335058],[130.23542918986263,1.4983638704224267],[130.24073168586935,1.5194056229875887],[130.62168104739618,1.438194617129128],[131.01580384770583,1.3768008409605443],[131.02881379999997,1.4174496984187046],[131.7797533,1.2578022985961266],[131.75835281303614,1.1301309369286088],[133.074164,1.4882852983400419],[133.35724644765747,0.18426787218305085],[133.37409589999993,0.2609995997081949],[133.89782446034334,0.17835506300173593],[134.629515,0.39924949955368016],[135.0937256071326,0.49687333884249807],[135.3261878,0.5617383993721218],[135.41874430289582,0.13543126433409663],[136.16659731536365,0.01746357423432939],[136.72991809999996,0.18755519979030236],[137.42820360000002,0.33987149962002705],[137.5508948122854,-0.20091379746213003],[137.6409559,-0.21636109975811965],[137.597808743725,-0.4209755102205903],[137.73488888382948,-1.0617143664565019],[137.88082625692118,-1.0849888479498422],[138.9886069,-0.7484716991636285],[139.35040340565146,-0.6695813243255142],[139.41288590000002,-0.3773984995781157],[139.88804823444733,-0.4801523059804513],[140.16644159999998,-0.42011239953033286],[140.154496,-0.3623050995949404],[140.92761130000002,-0.19569319978118563],[140.9142213,-0.13172869985273022],[141.6114017,0.018455499979370835],[142.1639395248598,-2.5066033856619927],[143.2852872,-2.687324897019482],[142.75361223351163,-5.160575030167601],[143.5976189,-8.959603590847305],[141.81521367482156,-9.46483214947432],[141.73914673890854,-9.806257205644108],[141.7632125478943,-9.909704153440366],[141.71295660118244,-9.92274433770456],[141.68486489996656,-10.030720093022595],[141.17974850855424,-12.169199809261473],[139.237058070028,-11.725564791129136],[139.03250541327168,-12.560840807324402],[138.23144040313161,-12.376995045401248],[138.24447120098498,-12.432034670865344],[136.94152268393546,-12.731048145622191],[136.8644164,-13.070354587949598],[136.16505110498386,-12.909403484172856],[135.9909357722166,-12.949414700128928],[135.97149966448904,-12.864877676530979],[134.5863241,-12.546445988254906],[134.80442650708747,-11.645887255210097],[133.1705875548267,-11.266758355935549],[132.8483532,-12.754086288131536],[132.82281079992052,-12.748313382161149],[132.8052906,-12.82584618808962],[130.85927538674548,-12.374868958830323],[130.7234145,-12.932946388027766],[128.77481813896475,-12.483639951919383],[128.74142841809797,-12.59235216434328],[126.7953465954742,-12.146000921309726],[126.65777301813334,-12.709914538832761],[124.70263665853102,-12.261243249419055],[124.64872030000001,-12.497363088284542],[122.70314144754002,-12.052285172333095],[122.60980659999998,-12.447778188314624],[121.84501327415789,-12.315900134158944],[121.83790180000001,-12.333991888384299],[121.49949062819732,-12.256340736664907],[121.048492297439,-12.17861969099716],[121.03609150040015,-12.21714143918735],[120.32506619999997,-12.053997088559688],[120.45428793644862,-11.505044086768375],[119.99660205801563,-11.425673072925768],[119.98838133283427,-11.449311826237341],[119.5347361775734,-11.345610262090883],[119.2029490169571,-11.288132306777701],[119.19037679648463,-11.328573515288749],[118.48176880721677,-11.164508766863921],[118.51026137321985,-11.033263985162316],[118.05142700195894,-10.929914775587731],[118.03790283631196,-10.987653059072537],[117.25435912840227,-10.808889830104201],[117.23894953754923,-10.872391196458215],[116.53187339443751,-10.708931330799626],[116.61947918536693,-10.325565567026672],[115.5795769172099,-10.149083857198708],[114.8623710662165,-10.352108985638278],[114.83751681668866,-10.437884376987137],[114.0945787027743,-10.270893675575714],[114.07791705898883,-10.327888605175886],[113.87717619522381,-10.282213204673083],[113.5669408,-10.352782789740807],[113.58114760000001,-10.415919189693529],[112.81496479999997,-10.58824348956579],[112.68886325489461,-10.077702992340273],[112.5741205980289,-10.051181769366307],[112.58950880068913,-9.979177781436881],[112.12026231526947,-9.899481717262315],[112.1145231,-9.916724890074189],[111.79682737726488,-9.844561027842024],[111.32923812586716,-9.765178009219012],[111.31793318824259,-9.803017399006452],[110.6114433,-9.643353190289288],[110.63977729274806,-9.517810630725371],[110.5236735,-9.543708490368891],[110.37626484372146,-8.921511630375477],[110.29005849999999,-8.903425090894402],[110.276666,-8.961193190845966],[109.4965492,-8.784783590994431],[109.4816551,-8.848380590940742],[109.06008761706605,-8.752153811775576],[108.89647599999999,-9.447470090446302],[106.6319283,-9.066233890758461],[106.72158361337385,-8.661966848421345],[106.61882199162602,-8.639017698474659],[106.2234658,-8.727376891043162],[106.19641907327377,-8.605275433304007]]],[[[129.86726153480976,5.629203031286819],[129.8513702958895,5.571810904678092],[129.07708767353574,5.731722046547008],[129.05973754414188,5.668948745379143],[128.35551608990804,5.8136431976360186],[128.65839960087453,7.3086176225104555],[130.63416264177138,6.907232822097434],[130.7436824301615,7.415595895481547],[134.68830588631303,6.604769764628466],[134.92132528063377,7.7545143807161],[137.15214055561657,7.300991988698449],[137.04002518218223,6.741000431718439],[137.47154068927622,6.653153492204144],[137.488199648236,6.710101280534635],[138.26326010162677,6.551286202041375],[138.2815489690585,6.613491166001735],[139.03741717413138,6.457493664626733],[138.13453789702902,2.111707871008549],[137.3974728426811,2.2646556961621154],[137.38152207748897,2.2075142100443146],[136.61103269612556,2.370755502797693],[136.59366410800425,2.3076020472936234],[135.89613020927754,2.4552595650129265],[135.9627654451363,2.782732168151223],[135.47129281189763,2.886663529731324],[135.45388135452964,2.8294350354496562],[134.6841992436913,2.9917823455286627],[134.6653955248018,2.9289015321697796],[133.96725878959714,3.0759619736671286],[134.12482842945712,3.843389597382067],[133.63305476598256,3.9466619404090415],[133.61664914525255,3.889599181988702],[132.845329817939,4.051015807427939],[132.82728457328986,3.987916820216589],[132.12825996628737,4.133813995638085],[132.36652712499722,5.301112925427601],[131.87717407537457,5.402965835977115],[131.8613803572718,5.345375339478177],[131.0875440163261,5.505501331189926],[131.07052182654104,5.442127487074809],[130.61945638573903,5.534986338161645],[130.6033341751494,5.476196953785622],[129.86726153480976,5.629203031286819]]]]},"properties":{"dataset_count":91222,"product_name":"s1_rtc","time_spec":[null,null,null]}}