{"type":"Feature","geometry":{"type":"Polygon","coordinates":[[[103.25652945206517,-6.8326247685071255],[103.19220978884024,-6.832658921432018],[103.03058092067975,-6.797998031030985],[103.0231426395598,-6.833079625551058],[101.39310765968195,-6.484249705959869],[101.64413250763089,-5.319914658944841],[100.30784042325402,-5.032979594641476],[100.54989073801575,-3.9058852853069546],[99.06775712524544,-3.5871650931698595],[99.30908933741819,-2.4587578927729714],[99.25705938612411,-2.4475781014612887],[99.24714273562661,-2.494440940500628],[97.62712307810462,-2.146704602517132],[97.87749210028542,-0.9711817098382066],[96.59509735887212,-0.6951664289917479],[96.83523339750592,0.4331225450237696],[95.35709232063495,0.7504375647323455],[95.59664552377549,1.8804806405714312],[94.12386736652267,2.1973826318198015],[95.10752050844611,6.82466074802831],[95.17562246115193,6.8243582759355785],[96.58210665497789,6.526622383894613],[96.64495421969792,6.824328812288441],[96.71765984308031,6.824678467181838],[97.16023340068429,6.730896809811831],[97.18029567722147,6.825561637470369],[97.7406573382013,6.7075437021463005],[97.76574556215422,6.825516539857261],[98.17514413867711,6.739219437863639],[98.19331443257764,6.824521817029033],[98.34744140060614,6.805785807631489],[98.35159317474279,6.825303272275333],[98.91568870012736,6.706434637904842],[98.94103622914017,6.825464124810199],[99.50675790111622,6.706221748791584],[99.53211430024031,6.825174218298945],[99.72736095719954,6.78377032486911],[99.73600760101633,6.824363477022941],[99.80415169411334,6.824526047838313],[101.22002787367923,6.525286404873298],[101.28387878992648,6.824942351140666],[101.35631309113884,6.824593776828807],[102.76630500068867,6.52585576531485],[102.82944211908244,6.82438110098434],[102.89048974947215,6.824652047021227],[104.54359630793957,6.4751788033265445],[103.99047969187488,3.8968696418188498],[105.24383554959194,3.630568059172809],[105.30802068290446,3.932341157967935],[105.37611852163883,3.9323131555009843],[106.49904543765088,3.6939393848672477],[106.8564207546908,5.379396845260093],[107.14128263838063,5.319178394478297],[107.15383179722411,5.3784185581228385],[107.22716197431586,5.378426252758224],[107.4322619837633,5.33483279344882],[107.44172264338769,5.379231500851187],[109.06105149509702,5.035440088293619],[108.80928676981915,3.8592322539961414],[109.87335761450964,3.6332302232767426],[109.93664397388781,3.931989924301448],[110.00365053094475,3.93261561223369],[111.1948007743818,3.679169978043271],[111.86225131775755,6.825511096199141],[112.08691815035314,6.778146903673862],[112.09680400018297,6.824763403870371],[112.16602635585669,6.82460102721659],[112.4351560070775,6.767532456602827],[112.44751650831978,6.825466182570788],[113.5713832851522,6.5872077377705285],[113.6217970654764,6.825019327882876],[113.70989613024496,6.824545224704332],[115.12727331131447,6.5248442735765355],[115.19142417273866,6.825061010735377],[115.25981458357039,6.824770152941999],[116.67366087867195,6.525469986871023],[116.7395740693434,6.824854667767489],[116.79930657671882,6.824883217745264],[117.69160219231257,6.636046676606551],[117.73166498226742,6.825184161073739],[118.25401466691203,6.715134973218146],[118.27732207839543,6.8245904487982285],[118.3440975406929,6.82468029414341],[119.7639492520343,6.523375671838794],[119.82808844246432,6.825066771833374],[119.89614430451476,6.82415499534315],[121.30216003186183,6.526480029218287],[121.36539004718938,6.824325756697394],[121.43866908068966,6.824839837720846],[122.85035892579594,6.525547527232801],[122.914156514361,6.824645948053138],[123.01479726302028,6.817060114885495],[123.0165170896519,6.825196065119705],[123.58059092872152,6.706280065597785],[123.60596271567664,6.825358463332636],[124.17256470809335,6.705897126229739],[124.19805942910199,6.8250651702559235],[124.44538854482543,6.772631993249619],[124.45647111247625,6.824625335158013],[124.51455703455754,6.824989001179314],[125.93993339293004,6.525038510967315],[126.00324588800441,6.823748789780213],[126.07645596766282,6.824198395852757],[127.0839738794538,6.610785022679266],[127.12954801194896,6.8256386853445665],[128.75142141766494,6.48210758312674],[128.461365688481,5.1339269476559135],[128.95259331882534,5.0296775431301155],[128.71032755464466,3.897303549158101],[129.96471012462445,3.630733998752955],[130.33643900342173,5.378859454973331],[130.40330286387328,5.378166603806956],[131.47329053504666,5.1511389889510335],[131.82889994298597,6.825343087310747],[132.16692755828268,6.753670789579035],[132.18194284088148,6.824555624908914],[132.25516456764515,6.824978158920538],[133.90306641036113,6.4752847539567755],[132.73188496274153,1.0055146696551969],[133.9811077182632,0.7399928885690498],[134.35150811556764,2.4858903254033713],[134.41815823206244,2.4861929444925774],[136.05800648216552,2.137187076552215],[135.817299917654,1.006041054154647],[135.87604113305477,0.9935388565972791],[135.88597819300762,1.0403599577868647],[137.4985560175688,0.6972867291154217],[137.24842922535095,-0.4812849727989811],[138.31126956168404,-0.7071794063240351],[138.37542561064643,-0.40602128060870285],[138.44706770154994,-0.4068578337930025],[140.08650207643885,-0.7556702178587549],[139.84684842894194,-1.8879380657865532],[140.517573629367,-2.0306174072104195],[140.86353296686497,-0.4059065012575994],[142.47733717104566,-0.7495448094094317],[142.19927357176735,-2.061280862779951],[142.86070968064448,-2.202339038044848],[142.26663684088967,-4.9891914135749476],[142.73680068357478,-5.088673169682814],[141.86087493074595,-9.217635681707888],[142.8835787025031,-9.433123600618112],[142.20146034793848,-12.614236086284176],[142.12192343292955,-12.614582021372925],[140.7087440184498,-12.315515103928911],[140.64030803611138,-12.614797186975878],[140.54215983446375,-12.606599883333201],[140.54031536169802,-12.615186389373806],[139.97705115123685,-12.497227035624256],[139.9514455051,-12.615422626510755],[139.14384377437594,-12.444442745980648],[139.1070067403045,-12.614568809034843],[139.0335640405839,-12.615122647127258],[137.62732632645128,-12.316764464549363],[137.56339250209138,-12.614666936452853],[137.48611645181893,-12.61458464367517],[136.08280888835696,-12.3177796804653],[136.01890549987502,-12.614181130285289],[135.94626957773255,-12.614719586557756],[135.28361585310822,-12.474412608336575],[135.2532546589295,-12.615733165941766],[134.69146710126722,-12.49801955384565],[134.66599565735078,-12.615644397246331],[134.47761667903126,-12.576179046253161],[134.46932861925563,-12.614512234478868],[134.39143584083314,-12.614617409740571],[134.09363812045694,-12.551562183273516],[134.07987548789347,-12.61508218977716],[132.9715637755788,-12.38060667332563],[132.92093178700975,-12.614540530720385],[132.854678148502,-12.614558663139588],[131.447563708484,-12.316721160778389],[131.38371905349854,-12.61443431472382],[131.30616456119222,-12.615115510801992],[130.5886835339093,-12.463186276473563],[130.5560468533395,-12.615117716463947],[129.86298740772486,-12.469206223699866],[129.8316473033142,-12.614558543883437],[129.7661878509833,-12.614754331510687],[129.39840051007346,-12.537016710548343],[129.381422599069,-12.615580893466529],[128.34131167623138,-12.396741936900776],[128.29420961063008,-12.614649479657562],[128.26711987954593,-12.622172063164442],[126.80594562813856,-12.315962739379822],[126.74122385279593,-12.614707367507792],[126.6735953965702,-12.614939905145114],[125.8948132379878,-12.44966205954686],[125.85921472276054,-12.615456167333221],[125.22768766235083,-12.482493428352837],[125.19933579882817,-12.614661421920003],[125.1292198750883,-12.614687554878223],[124.7024679831232,-12.524303924416682],[124.68279131297673,-12.615433864767542],[123.70306151409015,-12.408057811375448],[123.65846612625144,-12.614499058791136],[123.5783643349999,-12.614413228925779],[122.17490623915195,-12.317554044061817],[122.11053573235161,-12.614372273565781],[122.04258979334158,-12.614951140816146],[121.76738027114364,-12.556606872495092],[121.75480854558059,-12.615120717834959],[121.1887266624276,-12.495191471049326],[121.16296153314157,-12.615357283129695],[120.59746157727456,-12.496962475121473],[120.57195790885956,-12.615264420577608],[118.91518260976501,-12.264621226020443],[119.1622209330082,-11.14813807131972],[117.5880780502452,-10.813544635861751],[117.83615496941532,-9.684791994193123],[116.60779749924089,-9.422718842678208],[116.53663954876838,-9.724118273299016],[116.4827599682085,-9.72458367419969],[115.06528255626394,-9.42276001192291],[114.99390071535942,-9.72424246561082],[114.93458755881272,-9.723889178302976],[113.52651906560183,-9.423357804124999],[113.46270236497226,-9.723697462437455],[113.38755404217414,-9.723959653584481],[112.43448852511565,-9.520954681629663],[112.39115421387727,-9.724857447164968],[111.93762772763208,-9.629009830918587],[111.91752904025107,-9.723472480687292],[111.80188227763557,-9.714192984024168],[111.79966327553976,-9.724582405891498],[110.67330515414389,-9.485591423904665],[110.62224439916194,-9.724494902912351],[110.37972902377662,-9.673285329892964],[110.36871401031856,-9.724120795258425],[110.29295741803115,-9.724243852695265],[110.0470053477173,-9.671738577583193],[110.03561200909274,-9.724971356310776],[108.39939209927694,-9.376508513898374],[108.65747694039533,-8.192114546601491],[108.0501858342641,-8.062370667277012],[108.00426343356735,-8.27875334114145],[107.60882166544602,-8.194864307089253],[107.28342968523108,-9.723857868049299],[107.20772699976482,-9.724355299196514],[107.1079343177481,-9.703071893614691],[107.10332013653857,-9.724742671359753],[106.53782891559133,-9.60533471361993],[106.5122809553178,-9.724885546304574],[105.94906656965009,-9.605869429976808],[105.92354985320304,-9.725084120168443],[105.74047271192624,-9.686396081328368],[105.73238549352051,-9.72419050554616],[105.66483393195591,-9.72405720861348],[105.35183120706334,-9.65738369215076],[105.33745974993147,-9.724537048993293],[103.70058476765772,-9.376083708205215],[104.27520267772405,-6.7339761784197325],[103.32108272658171,-6.529468545732109],[103.25652945206517,-6.8326247685071255]],[[121.48530794322987,2.3685317756684836],[121.51025465943012,2.4868334718087834],[121.97150556289276,2.3889100453075214],[121.99209990079089,2.485935057408265],[122.09459801716493,2.47899548025124],[122.57700005581607,4.7499012396892715],[121.23568793662098,5.037558149720259],[120.68259659691593,2.4508320752810846],[120.90735068380322,2.402987760742573],[120.92522510724119,2.4873953336667367],[121.48530794322987,2.3685317756684836]],[[132.68275988966585,-6.531515818337369],[132.13199272168023,-9.12231605913527],[133.0737421194229,-9.321254745475116],[133.63918016240717,-6.736228588185247],[132.68275988966585,-6.531515818337369]],[[125.02572890730494,-5.044809602618671],[125.57963767093597,-2.4603880761599277],[124.32774649104908,-2.191231390131559],[123.78043922716604,-4.7803533659717194],[125.02572890730494,-5.044809602618671]]]},"properties":{"dataset_count":31005,"product_name":"ls9_c2l2_st","time_spec":[null,null,null]}}